[{"OBJECT_NAME":"GAOFEN-5 02","OBJECT_ID":"2021-079A","EPOCH":"2026-03-09T22:28:30.715104","MEAN_MOTION":14.5772301,"ECCENTRICITY":3.379e-5,"INCLINATION":98.2675,"RA_OF_ASC_NODE":143.9335,"ARG_OF_PERICENTER":339.1436,"MEAN_ANOMALY":20.9749,"EPHEMERIS_TYPE":0,"CLASSIFICATION_TYPE":"U","NORAD_CAT_ID":49122,"ELEMENT_SET_NO":999,"REV_AT_EPOCH":23962,"BSTAR":9.830729e-5,"MEAN_MOTION_DOT":4.03e-6,"MEAN_MOTION_DDOT":0},{"OBJECT_NAME":"DELTA 1 DEB","OBJECT_ID":"1975-004EQ","EPOCH":"2026-03-09T18:41:19.953888","MEAN_MOTION":14.39457468,"ECCENTRICITY":0.00871377,"INCLINATION":97.5483,"RA_OF_ASC_NODE":275.1941,"ARG_OF_PERICENTER":115.2903,"MEAN_ANOMALY":245.7347,"EPHEMERIS_TYPE":0,"CLASSIFICATION_TYPE":"U","NORAD_CAT_ID":9313,"ELEMENT_SET_NO":999,"REV_AT_EPOCH":62140,"BSTAR":0.00011010906,"MEAN_MOTION_DOT":3.22e-6,"MEAN_MOTION_DDOT":0}]
